ordinal{string},comment{string},originator{string},norad_cat_id{string},object_name{string},object_type{string},classification_type{string},intldes{string},epoch{timestamp},epoch_microseconds{integer},mean_motion{decimal},eccentricity{decimal},inclination{decimal},ra_of_asc_node{decimal},arg_of_pericenter{decimal},mean_anomaly{decimal},ephemeris_type{string},element_set_no{string},rev_at_epoch{integer},bstar{decimal},mean_motion_dot{decimal},mean_motion_ddot{string},file{string},tle_line0{string},tle_line1{string},tle_line2{string},object_id{string},object_number{string},semimajor_axis{decimal},period{decimal},apogee{decimal},perigee{decimal}
1,GENERATED VIA SPACETRACK.ORG API,JSPOC,43852,STF-1,PAYLOAD,U,18104D,2019-02-22T05:29:58Z,206624,15.2034977100000006,0.00169640000000000003,85.0370000000000061,133.515999999999991,56.776600000000002,303.512200000000007,0,999,1031,0,4.09999999999999992e-07,0,2414503,0 STF-1,1 43852U 18104D   19053.22914591  .00000041  00000-0  00000+0 0  9991,2 43852  85.0370 133.5160 0016964  56.7766 303.5122 15.20349771 10319,2018-104D,43852,6882.92100000000028,94.7150000000000034,516.461999999999989,493.110000000000014
1,GENERATED VIA SPACETRACK.ORG API,JSPOC,6264,COSMOS 529,PAYLOAD,U,72087B,2019-02-22T05:30:03Z,845088,12.5716654099999996,0.00428719999999999969,74.0381,354.744000000000028,249.388299999999987,220.014700000000005,0,999,12543,5.84689999999999987e-05,-7.00000000000000048e-08,0,2414303,0 COSMOS 529,1  6264U 72087B   19053.22921117 -.00000007  00000-0  58469-4 0  9999,2  6264  74.0381 354.7440 0042872 249.3883 220.0147 12.57166541125439,1972-087B,6264,7812.79799999999977,114.543000000000006,1468.1579999999999,1401.16799999999989
1,GENERATED VIA SPACETRACK.ORG API,JSPOC,1293,OSCAR 3,PAYLOAD,U,65016F,2019-02-22T05:30:39Z,43584,14.0630941899999993,0.00154900000000000003,70.073599999999999,76.4081000000000046,133.349400000000003,226.891099999999994,0,999,75682,0.000126579999999999998,1.54999999999999998e-06,0,2414374,0 OSCAR 3,1  1293U 65016F   19053.22961856  .00000155  00000-0  12658-3 0  9996,2  1293  70.0736  76.4081 0015490 133.3494 226.8911 14.06309419756826,1965-016F,1293,7250.16499999999996,102.394999999999996,883.259999999999991,860.798999999999978
1,GENERATED VIA SPACETRACK.ORG API,JSPOC,25892,COSMOS 2366,PAYLOAD,U,99045A,2019-02-22T05:31:01Z,159392,13.7446020099999995,0.0030444999999999999,82.9300999999999959,305.709799999999973,243.157100000000014,232.518599999999992,0,999,97788,1.78840000000000002e-05,3.20000000000000007e-07,0,2414266,0 COSMOS 2366,1 25892U 99045A   19053.22987453  .00000032  00000-0  17884-4 0  9998,2 25892  82.9301 305.7098 0030445 243.1571 232.5186 13.74460201977886,1999-045A,25892,7361.73800000000028,104.768000000000001,1006.01599999999996,961.190000000000055
1,GENERATED VIA SPACETRACK.ORG API,JSPOC,43119,FLOCK 3PP 3,PAYLOAD,U,18004J,2019-02-22T05:31:25Z,692672,15.2262262899999996,0.000886199999999999965,97.5045999999999964,121.001099999999994,304.546800000000019,55.4930999999999983,0,999,6175,3.09700000000000033e-05,6.4899999999999997e-06,0,2414325,0 FLOCK 3PP 3,1 43119U 18004J   19053.23015848  .00000649  00000-0  30970-4 0  9992,2 43119  97.5046 121.0011 0008862 304.5468  55.4931 15.22622629 61754,2018-004J,43119,6876.06999999999971,94.5729999999999933,504.028999999999996,491.841000000000008
1,GENERATED VIA SPACETRACK.ORG API,JSPOC,12681,COSMOS 1295,PAYLOAD,U,81077A,2019-02-22T05:31:28Z,595712,13.7638925400000005,0.00438589999999999987,82.9196000000000026,311.865200000000016,180.772400000000005,291.301600000000008,0,999,88491,2.96549999999999998e-05,4.40000000000000022e-07,0,2414287,0 COSMOS 1295,1 12681U 81077A   19053.23019208  .00000044  00000-0  29655-4 0  9993,2 12681  82.9196 311.8652 0043859 180.7724 291.3016 13.76389254884919,1981-077A,12681,7354.85800000000017,104.620999999999995,1008.98099999999999,944.465000000000032
1,GENERATED VIA SPACETRACK.ORG API,JSPOC,14147,COSMOS 1470,PAYLOAD,U,83061A,2019-02-22T05:32:19Z,539744,15.1111147500000005,0.0013939,82.4846000000000004,154.798599999999993,310.275800000000004,49.7252999999999972,0,999,69768,4.57299999999999975e-05,7.96999999999999993e-06,0,2414289,0 COSMOS 1470,1 14147U 83061A   19053.23078171  .00000797  00000-0  45730-4 0  9998,2 14147  82.4846 154.7986 0013939 310.2758  49.7253 15.11111475697685,1983-061A,14147,6910.94599999999991,95.2939999999999969,542.44399999999996,523.177000000000021
1,GENERATED VIA SPACETRACK.ORG API,JSPOC,8473,COSMOS 785,PAYLOAD,U,75116A,2019-02-22T05:32:27Z,791808,13.8217804799999993,0.00712440000000000035,65.0781999999999954,34.5964000000000027,151.423599999999993,209.075799999999987,0,999,18003,-3.86509999999999964e-06,-9.1999999999999998e-07,0,2414260,0 COSMOS 785,1  8473U 75116A   19053.23087722 -.00000092  00000-0 -38651-5 0  9992,2  8473  65.0782  34.5964 0071244 151.4236 209.0758 13.82178048180038,1975-116A,8473,7334.30799999999999,104.183000000000007,1008.42600000000004,903.921000000000049
1,GENERATED VIA SPACETRACK.ORG API,JSPOC,16510,COSMOS 1727,PAYLOAD,U,86008A,2019-02-22T05:32:40Z,39872,13.7439570900000003,0.00393899999999999979,82.950800000000001,149.072800000000001,120.121300000000005,297.778500000000008,0,999,65896,3.31869999999999992e-05,4.7e-07,0,2414289,0 COSMOS 1727,1 16510U 86008A   19053.23101898  .00000047  00000-0  33187-4 0  9992,2 16510  82.9508 149.0728 0039390 120.1213 297.7785 13.74395709658969,1986-008A,16510,7361.96799999999985,104.772999999999996,1012.83199999999999,954.835000000000036
1,GENERATED VIA SPACETRACK.ORG API,JSPOC,19921,COSMOS 2016,PAYLOAD,U,89028A,2019-02-22T05:32:45Z,964320,13.7506409400000003,0.00411889999999999999,82.9650000000000034,2.03230000000000022,90.7368000000000023,18.742799999999999,0,999,49890,1.54869999999999993e-05,3.09999999999999997e-07,0,2414375,0 COSMOS 2016,1 19921U 89028A   19053.23108755  .00000031  00000-0  15487-4 0  9991,2 19921  82.9650   2.0323 0041189  90.7368  18.7428 13.75064094498909,1989-028A,19921,7359.58299999999963,104.721999999999994,1011.76099999999997,951.134000000000015
1,GENERATED VIA SPACETRACK.ORG API,JSPOC,17159,COSMOS 1802,PAYLOAD,U,86093A,2019-02-22T05:33:44Z,983296,13.7273401600000007,0.0042433999999999996,82.9325999999999937,356.704999999999984,349.634500000000003,119.502499999999998,0,999,61529,2.0933000000000001e-05,3.39999999999999974e-07,0,2414313,0 COSMOS 1802,1 17159U 86093A   19053.23177064  .00000034  00000-0  20933-4 0  9995,2 17159  82.9326 356.7050 0042434 349.6345 119.5025 13.72734016615292,1986-093A,17159,7367.90800000000036,104.900000000000006,1021.03800000000001,958.508000000000038
1,GENERATED VIA SPACETRACK.ORG API,JSPOC,11680,COSMOS 1153,PAYLOAD,U,80007A,2019-02-22T05:33:53Z,891136,13.7363374100000009,0.00363569999999999996,82.9358000000000004,348.346499999999992,210.679200000000009,257.638899999999978,0,999,95859,1.5370999999999999e-05,2.89999999999999976e-07,0,2414302,0 COSMOS 1153,1 11680U 80007A   19053.23187374  .00000029  00000-0  15371-4 0  9996,2 11680  82.9358 348.3465 0036357 210.6792 257.6389 13.73633741958591,1980-007A,11680,7364.6909999999998,104.831000000000003,1013.33199999999999,959.779999999999973
1,GENERATED VIA SPACETRACK.ORG API,JSPOC,41167,KENT RIDGE 1,PAYLOAD,U,15077B,2019-02-22T05:34:11Z,64,15.0899079700000005,0.00101549999999999991,14.9374000000000002,26.1754999999999995,208.155399999999986,353.784800000000018,0,999,17597,4.52710000000000024e-06,7.30000000000000041e-06,0,2414376,0 KENT RIDGE 1,1 41167U 15077B   19053.23207176  .00000730  00000-0  45271-5 0  9999,2 41167  14.9374  26.1755 0010155 208.1554 353.7848 15.08990797175974,2015-077B,41167,6917.41899999999987,95.4279999999999973,546.308999999999969,532.259000000000015
1,GENERATED VIA SPACETRACK.ORG API,JSPOC,13589,COSMOS 1410,PAYLOAD,U,82096A,2019-02-22T05:34:17Z,181120,12.4230769700000003,0.000706200000000000035,82.6106999999999942,307.919199999999989,31.6436999999999991,85.3132999999999981,0,999,65218,0.000148170000000000013,2.99999999999999986e-07,0,2414279,0 COSMOS 1410,1 13589U 82096A   19053.23214330  .00000030  00000-0  14817-3 0  9994,2 13589  82.6107 307.9192 0007062  31.6437  85.3133 12.42307697652188,1982-096A,13589,7874.97199999999975,115.912999999999997,1502.39899999999989,1491.27600000000007
1,GENERATED VIA SPACETRACK.ORG API,JSPOC,6909,NNSS 20 (TRANSIT 20),PAYLOAD,U,73081A,2019-02-22T05:34:17Z,17824,13.7051075099999995,0.0156182000000000005,89.8182000000000045,301.106100000000026,324.642200000000003,34.445999999999998,0,999,46338,4.70200000000000004e-05,5.40000000000000018e-07,0,2414441,0 NNSS 20 (TRANSIT 20),1  6909U 73081A   19053.23214141  .00000054  00000-0  47020-4 0  9995,2  6909  89.8182 301.1061 0156182 324.6422  34.4460 13.70510751463385,1973-081A,6909,7375.8739999999998,105.069999999999993,1112.9369999999999,882.54200000000003
1,GENERATED VIA SPACETRACK.ORG API,JSPOC,16455,COSMOS 1722,PAYLOAD,U,86002G,2019-02-22T05:35:21Z,29856,12.5399580900000007,0.0046340000000000001,73.9887999999999977,124.450199999999995,214.239000000000004,201.252999999999986,0,999,51634,0.000144709999999999988,7.00000000000000048e-08,0,2414307,0 COSMOS 1722,1 16455U 86002G   19053.23288229  .00000007  00000-0  14471-3 0  9998,2 16455  73.9888 124.4502 0046340 214.2390 201.2530 12.53995809516345,1986-002G,16455,7825.96200000000044,114.831999999999994,1484.09300000000007,1411.5619999999999
1,GENERATED VIA SPACETRACK.ORG API,JSPOC,14173,COSMOS 1475,PAYLOAD,U,83069C,2019-02-22T05:36:45Z,804672,12.5453466000000002,0.00217409999999999999,74.0260999999999996,135.880200000000002,174.625100000000003,244.688700000000011,0,999,63212,0.000134560000000000013,5.99999999999999946e-08,0,2414337,0 COSMOS 1475,1 14173U 83069C   19053.23386348  .00000006  00000-0  13456-3 0  9995,2 14173  74.0261 135.8802 0021741 174.6251 244.6887 12.54534660632125,1983-069C,14173,7823.72099999999955,114.783000000000001,1462.596,1428.577
